{
    "week": 293,
    "satellites": [
        {
            "Name": "BEIDOU-3 M13 (C32)",
            "Line1": "1 43622U 18072A   24324.99451685 -.00000021  00000+0  00000+0 0  9999",
            "Line2": "2 43622  56.1234  81.6889 0004854 291.4837  68.4454  1.86231061 41964",
            "SatelliteNumber": "43622",
            "Classification": "U",
            "LaunchYear": "18",
            "LaunchNumber": "072",
            "PieceOfLaunch": "A",
            "EpochYear": "24",
            "EpochDay": 324.99451685,
            "FirstDerivativeMeanMotion": -2.1e-07,
            "SecondDerivativeMeanMotion": "00000+0",
            "BSTAR": "00000+0",
            "SetNumber": "999",
            "Inclination": 56.1234,
            "RAAN": 81.6889,
            "Eccentricity": 0.0004854,
            "ArgumentOfPerigee": 291.4837,
            "MeanAnomaly": 68.4454,
            "MeanMotion": 1.86231061,
            "RevolutionNumber": "4196"
        },
        {
            "Name": "BEIDOU-3 M14 (C33)",
            "Line1": "1 43623U 18072B   24325.39693995 -.00000019  00000+0  00000+0 0  9994",
            "Line2": "2 43623  56.1258  81.6689 0002426 335.7406  24.2302  1.86231042 41967",
            "SatelliteNumber": "43623",
            "Classification": "U",
            "LaunchYear": "18",
            "LaunchNumber": "072",
            "PieceOfLaunch": "B",
            "EpochYear": "24",
            "EpochDay": 325.39693995,
            "FirstDerivativeMeanMotion": -1.9e-07,
            "SecondDerivativeMeanMotion": "00000+0",
            "BSTAR": "00000+0",
            "SetNumber": "999",
            "Inclination": 56.1258,
            "RAAN": 81.6689,
            "Eccentricity": 0.0002426,
            "ArgumentOfPerigee": 335.7406,
            "MeanAnomaly": 24.2302,
            "MeanMotion": 1.86231042,
            "RevolutionNumber": "4196"
        },
        {
            "Name": "BEIDOU-3 M16 (C35)",
            "Line1": "1 43647U 18078A   24325.02173052 -.00000076  00000+0  00000+0 0  9996",
            "Line2": "2 43647  54.5951 320.0301 0006639   7.2445 352.7687  1.86232257 41469",
            "SatelliteNumber": "43647",
            "Classification": "U",
            "LaunchYear": "18",
            "LaunchNumber": "078",
            "PieceOfLaunch": "A",
            "EpochYear": "24",
            "EpochDay": 325.02173052,
            "FirstDerivativeMeanMotion": -7.6e-07,
            "SecondDerivativeMeanMotion": "00000+0",
            "BSTAR": "00000+0",
            "SetNumber": "999",
            "Inclination": 54.5951,
            "RAAN": 320.0301,
            "Eccentricity": 0.0006639,
            "ArgumentOfPerigee": 7.2445,
            "MeanAnomaly": 352.7687,
            "MeanMotion": 1.86232257,
            "RevolutionNumber": "4146"
        },
        {
            "Name": "BEIDOU-3 M15 (C34)",
            "Line1": "1 43648U 18078B   24325.15086412 -.00000076  00000+0  00000+0 0  9994",
            "Line2": "2 43648  54.5906 320.0279 0003360   2.8761 357.1296  1.86232177 41482",
            "SatelliteNumber": "43648",
            "Classification": "U",
            "LaunchYear": "18",
            "LaunchNumber": "078",
            "PieceOfLaunch": "B",
            "EpochYear": "24",
            "EpochDay": 325.15086412,
            "FirstDerivativeMeanMotion": -7.6e-07,
            "SecondDerivativeMeanMotion": "00000+0",
            "BSTAR": "00000+0",
            "SetNumber": "999",
            "Inclination": 54.5906,
            "RAAN": 320.0279,
            "Eccentricity": 0.000336,
            "ArgumentOfPerigee": 2.8761,
            "MeanAnomaly": 357.1296,
            "MeanMotion": 1.86232177,
            "RevolutionNumber": "4148"
        },
        {
            "Name": "BEIDOU-3 G1 (C59)",
            "Line1": "1 43683U 18085A   24325.32303683 -.00000276  00000+0  00000+0 0  9994",
            "Line2": "2 43683   2.5777 104.0160 0001591  60.7185 151.4563  1.00271455 22306",
            "SatelliteNumber": "43683",
            "Classification": "U",
            "LaunchYear": "18",
            "LaunchNumber": "085",
            "PieceOfLaunch": "A",
            "EpochYear": "24",
            "EpochDay": 325.32303683,
            "FirstDerivativeMeanMotion": -2.76e-06,
            "SecondDerivativeMeanMotion": "00000+0",
            "BSTAR": "00000+0",
            "SetNumber": "999",
            "Inclination": 2.5777,
            "RAAN": 104.016,
            "Eccentricity": 0.0001591,
            "ArgumentOfPerigee": 60.7185,
            "MeanAnomaly": 151.4563,
            "MeanMotion": 1.00271455,
            "RevolutionNumber": "2230"
        },
        {
            "Name": "BEIDOU-3 M17 (C36)",
            "Line1": "1 43706U 18093A   24325.30353075  .00000007  00000+0  00000+0 0  9998",
            "Line2": "2 43706  54.1973 201.7708 0007062 297.8136  62.2015  1.86228436 40838",
            "SatelliteNumber": "43706",
            "Classification": "U",
            "LaunchYear": "18",
            "LaunchNumber": "093",
            "PieceOfLaunch": "A",
            "EpochYear": "24",
            "EpochDay": 325.30353075,
            "FirstDerivativeMeanMotion": 7e-08,
            "SecondDerivativeMeanMotion": "00000+0",
            "BSTAR": "00000+0",
            "SetNumber": "999",
            "Inclination": 54.1973,
            "RAAN": 201.7708,
            "Eccentricity": 0.0007062,
            "ArgumentOfPerigee": 297.8136,
            "MeanAnomaly": 62.2015,
            "MeanMotion": 1.86228436,
            "RevolutionNumber": "4083"
        },
        {
            "Name": "BEIDOU-3 M18 (C37)",
            "Line1": "1 43707U 18093B   24325.16759241  .00000009  00000+0  00000+0 0  9990",
            "Line2": "2 43707  54.1981 201.7672 0006608 336.0829  23.9737  1.86229979 40847",
            "SatelliteNumber": "43707",
            "Classification": "U",
            "LaunchYear": "18",
            "LaunchNumber": "093",
            "PieceOfLaunch": "B",
            "EpochYear": "24",
            "EpochDay": 325.16759241,
            "FirstDerivativeMeanMotion": 9e-08,
            "SecondDerivativeMeanMotion": "00000+0",
            "BSTAR": "00000+0",
            "SetNumber": "999",
            "Inclination": 54.1981,
            "RAAN": 201.7672,
            "Eccentricity": 0.0006608,
            "ArgumentOfPerigee": 336.0829,
            "MeanAnomaly": 23.9737,
            "MeanMotion": 1.86229979,
            "RevolutionNumber": "4084"
        },
        {
            "Name": "BEIDOU-3 IGSO-1 (C38)",
            "Line1": "1 44204U 19023A   24325.65678221 -.00000230  00000+0  00000+0 0  9996",
            "Line2": "2 44204  57.8746  43.5924 0025008 211.6426 158.2098  1.00254842 20615",
            "SatelliteNumber": "44204",
            "Classification": "U",
            "LaunchYear": "19",
            "LaunchNumber": "023",
            "PieceOfLaunch": "A",
            "EpochYear": "24",
            "EpochDay": 325.65678221,
            "FirstDerivativeMeanMotion": -2.3e-06,
            "SecondDerivativeMeanMotion": "00000+0",
            "BSTAR": "00000+0",
            "SetNumber": "999",
            "Inclination": 57.8746,
            "RAAN": 43.5924,
            "Eccentricity": 0.0025008,
            "ArgumentOfPerigee": 211.6426,
            "MeanAnomaly": 158.2098,
            "MeanMotion": 1.00254842,
            "RevolutionNumber": "2061"
        },
        {
            "Name": "BEIDOU-2 G8 (C01)",
            "Line1": "1 44231U 19027A   24325.59511149 -.00000246  00000+0  00000+0 0  9995",
            "Line2": "2 44231   1.8660  74.6793 0005002 197.9934 146.1841  1.00268813 20323",
            "SatelliteNumber": "44231",
            "Classification": "U",
            "LaunchYear": "19",
            "LaunchNumber": "027",
            "PieceOfLaunch": "A",
            "EpochYear": "24",
            "EpochDay": 325.59511149,
            "FirstDerivativeMeanMotion": -2.46e-06,
            "SecondDerivativeMeanMotion": "00000+0",
            "BSTAR": "00000+0",
            "SetNumber": "999",
            "Inclination": 1.866,
            "RAAN": 74.6793,
            "Eccentricity": 0.0005002,
            "ArgumentOfPerigee": 197.9934,
            "MeanAnomaly": 146.1841,
            "MeanMotion": 1.00268813,
            "RevolutionNumber": "2032"
        },
        {
            "Name": "BEIDOU-3 IGSO-2 (C39)",
            "Line1": "1 44337U 19035A   24322.83050358 -.00000064  00000+0  00000+0 0  9993",
            "Line2": "2 44337  55.1861 163.9216 0034767 201.0257 107.1426  1.00249229 19887",
            "SatelliteNumber": "44337",
            "Classification": "U",
            "LaunchYear": "19",
            "LaunchNumber": "035",
            "PieceOfLaunch": "A",
            "EpochYear": "24",
            "EpochDay": 322.83050358,
            "FirstDerivativeMeanMotion": -6.4e-07,
            "SecondDerivativeMeanMotion": "00000+0",
            "BSTAR": "00000+0",
            "SetNumber": "999",
            "Inclination": 55.1861,
            "RAAN": 163.9216,
            "Eccentricity": 0.0034767,
            "ArgumentOfPerigee": 201.0257,
            "MeanAnomaly": 107.1426,
            "MeanMotion": 1.00249229,
            "RevolutionNumber": "1988"
        }
    ]
}